{"type": "FeatureCollection", "features": [ {"type": "Feature", "properties": {"norad_id": 34529, "name": "IRIDIUM 33 DEB", "group": "iridium-33-debris", "lat": -19.82281273510461, "lon": -143.09653822973135, "alt_km": 758.5938635319471, "timestamp": "2025-12-12T07:43:20.900361+00:00", "meta": {"OBJECT_NAME": "IRIDIUM 33 DEB", "OBJECT_ID": "1997-051HW", "EPOCH": "2025-12-11T20:47:45.904992", "MEAN_MOTION": 14.40614839, "ECCENTRICITY": 0.00047004, "INCLINATION": 86.3641, "RA_OF_ASC_NODE": 35.7841, "ARG_OF_PERICENTER": 179.4725, "MEAN_ANOMALY": 180.648, "EPHEMERIS_TYPE": 0, "CLASSIFICATION_TYPE": "U", "NORAD_CAT_ID": 34529, "ELEMENT_SET_NO": 999, "REV_AT_EPOCH": 88129, "BSTAR": 0.00017622708, "MEAN_MOTION_DOT": 5.82e-06, "MEAN_MOTION_DDOT": 0}, "tle": {"line1": "1 34529U 97051HW  25345.86650353  .00000582  00000+0  17623-3 0  9996", "line2": "2 34529  86.3641  35.7841 0004700 179.4725 180.6480 14.40614839881292"}}, "geometry": {"type": "Point", "coordinates": [-143.09653822973135, -19.82281273510461]}}, {"type": "Feature", "properties": {"norad_id": 34538, "name": "IRIDIUM 33 DEB", "group": "iridium-33-debris", "lat": 33.923976822398, "lon": 8.248810648961154, "alt_km": 737.5508566631306, "timestamp": "2025-12-12T07:43:20.900371+00:00", "meta": {"OBJECT_NAME": "IRIDIUM 33 DEB", "OBJECT_ID": "1997-051JF", "EPOCH": "2025-12-11T12:17:49.059168", "MEAN_MOTION": 14.42637449, "ECCENTRICITY": 0.00329249, "INCLINATION": 86.2774, "RA_OF_ASC_NODE": 6.0934, "ARG_OF_PERICENTER": 332.21, "MEAN_ANOMALY": 180.6153, "EPHEMERIS_TYPE": 0, "CLASSIFICATION_TYPE": "U", "NORAD_CAT_ID": 34538, "ELEMENT_SET_NO": 999, "REV_AT_EPOCH": 87738, "BSTAR": 0.0015467501, "MEAN_MOTION_DOT": 5.192e-05, "MEAN_MOTION_DDOT": 0}, "tle": {"line1": "1 34538U 97051JF  25345.51237337  .00005192  00000+0  15468-2 0  9997", "line2": "2 34538  86.2774   6.0934 0032924 332.2100 180.6153 14.42637449877383"}}, "geometry": {"type": "Point", "coordinates": [8.248810648961154, 33.923976822398]}}, {"type": "Feature", "properties": {"norad_id": 34540, "name": "IRIDIUM 33 DEB", "group": "iridium-33-debris", "lat": 42.43293913661564, "lon": -48.82018428500656, "alt_km": 646.1603126927184, "timestamp": "2025-12-12T07:43:20.900385+00:00", "meta": {"OBJECT_NAME": "IRIDIUM 33 DEB", "OBJECT_ID": "1997-051JH", "EPOCH": "2025-12-11T22:00:21.576960", "MEAN_MOTION": 14.75294487, "ECCENTRICITY": 0.00162807, "INCLINATION": 86.3105, "RA_OF_ASC_NODE": 307.9831, "ARG_OF_PERICENTER": 162.0253, "MEAN_ANOMALY": 251.9643, "EPHEMERIS_TYPE": 0, "CLASSIFICATION_TYPE": "U", "NORAD_CAT_ID": 34540, "ELEMENT_SET_NO": 999, "REV_AT_EPOCH": 89009, "BSTAR": 0.0025243993, "MEAN_MOTION_DOT": 0.00017178, "MEAN_MOTION_DDOT": 0}, "tle": {"line1": "1 34540U 97051JH  25345.91691640  .00017178  00000+0  25244-2 0  9995", "line2": "2 34540  86.3105 307.9831 0016280 162.0253 251.9643 14.75294487890095"}}, "geometry": {"type": "Point", "coordinates": [-48.82018428500656, 42.43293913661564]}}, {"type": "Feature", "properties": {"norad_id": 34648, "name": "IRIDIUM 33 DEB", "group": "iridium-33-debris", "lat": -74.6947184624446, "lon": -91.22037820660321, "alt_km": 733.8787888001243, "timestamp": "2025-12-12T07:43:20.900404+00:00", "meta": {"OBJECT_NAME": "IRIDIUM 33 DEB", "OBJECT_ID": "1997-051JZ", "EPOCH": "2025-12-11T13:21:05.102784", "MEAN_MOTION": 14.11443671, "ECCENTRICITY": 0.01830215, "INCLINATION": 86.3904, "RA_OF_ASC_NODE": 282.4242, "ARG_OF_PERICENTER": 302.6046, "MEAN_ANOMALY": 55.7583, "EPHEMERIS_TYPE": 0, "CLASSIFICATION_TYPE": "U", "NORAD_CAT_ID": 34648, "ELEMENT_SET_NO": 999, "REV_AT_EPOCH": 84944, "BSTAR": 0.011270699, "MEAN_MOTION_DOT": 0.00023967, "MEAN_MOTION_DDOT": 0}, "tle": {"line1": "1 34648U 97051JZ  25345.55630906  .00023967  00000+0  11271-1 0  9999", "line2": "2 34648  86.3904 282.4242 0183021 302.6046  55.7583 14.11443671849441"}}, "geometry": {"type": "Point", "coordinates": [-91.22037820660321, -74.6947184624446]}}, {"type": "Feature", "properties": {"norad_id": 34651, "name": "IRIDIUM 33 DEB", "group": "iridium-33-debris", "lat": -36.89556863681901, "lon": 137.95842517276247, "alt_km": 858.7558776291198, "timestamp": "2025-12-12T07:43:20.900421+00:00", "meta": {"OBJECT_NAME": "IRIDIUM 33 DEB", "OBJECT_ID": "1997-051KC", "EPOCH": "2025-12-11T10:00:09.377280", "MEAN_MOTION": 14.25785902, "ECCENTRICITY": 0.01420766, "INCLINATION": 86.2836, "RA_OF_ASC_NODE": 141.1401, "ARG_OF_PERICENTER": 208.1446, "MEAN_ANOMALY": 151.2016, "EPHEMERIS_TYPE": 0, "CLASSIFICATION_TYPE": "U", "NORAD_CAT_ID": 34651, "ELEMENT_SET_NO": 999, "REV_AT_EPOCH": 85877, "BSTAR": 0.0064804536, "MEAN_MOTION_DOT": 0.00017162, "MEAN_MOTION_DDOT": 0}, "tle": {"line1": "1 34651U 97051KC  25345.41677520  .00017162  00000+0  64805-2 0  9993", "line2": "2 34651  86.2836 141.1401 0142076 208.1446 151.2016 14.25785902858775"}}, "geometry": {"type": "Point", "coordinates": [137.95842517276247, -36.89556863681901]}}, {"type": "Feature", "properties": {"norad_id": 34652, "name": "IRIDIUM 33 DEB", "group": "iridium-33-debris", "lat": -41.597419877922036, "lon": -23.077318334596644, "alt_km": 675.8494516066266, "timestamp": "2025-12-12T07:43:20.900433+00:00", "meta": {"OBJECT_NAME": "IRIDIUM 33 DEB", "OBJECT_ID": "1997-051KD", "EPOCH": "2025-12-11T23:57:08.974656", "MEAN_MOTION": 14.62047586, "ECCENTRICITY": 0.00259545, "INCLINATION": 86.3316, "RA_OF_ASC_NODE": 340.3318, "ARG_OF_PERICENTER": 300.945, "MEAN_ANOMALY": 114.4446, "EPHEMERIS_TYPE": 0, "CLASSIFICATION_TYPE": "U", "NORAD_CAT_ID": 34652, "ELEMENT_SET_NO": 999, "REV_AT_EPOCH": 88473, "BSTAR": 0.0015131963, "MEAN_MOTION_DOT": 7.652e-05, "MEAN_MOTION_DDOT": 0}, "tle": {"line1": "1 34652U 97051KD  25345.99802054  .00007652  00000+0  15132-2 0  9991", "line2": "2 34652  86.3316 340.3318 0025954 300.9450 114.4446 14.62047586884734"}}, "geometry": {"type": "Point", "coordinates": [-23.077318334596644, -41.597419877922036]}}, {"type": "Feature", "properties": {"norad_id": 34690, "name": "IRIDIUM 33 DEB", "group": "iridium-33-debris", "lat": -11.75476666433757, "lon": -142.07179113400178, "alt_km": 720.9508772666522, "timestamp": "2025-12-12T07:43:20.900443+00:00", "meta": {"OBJECT_NAME": "IRIDIUM 33 DEB", "OBJECT_ID": "1997-051KM", "EPOCH": "2025-12-11T02:55:05.414016", "MEAN_MOTION": 14.5508579, "ECCENTRICITY": 0.00110418, "INCLINATION": 86.378, "RA_OF_ASC_NODE": 37.6945, "ARG_OF_PERICENTER": 34.4543, "MEAN_ANOMALY": 354.2887, "EPHEMERIS_TYPE": 0, "CLASSIFICATION_TYPE": "U", "NORAD_CAT_ID": 34690, "ELEMENT_SET_NO": 999, "REV_AT_EPOCH": 88071, "BSTAR": 0.00065168739, "MEAN_MOTION_DOT": 2.833e-05, "MEAN_MOTION_DDOT": 0}, "tle": {"line1": "1 34690U 97051KM  25345.12159044  .00002833  00000+0  65169-3 0  9994", "line2": "2 34690  86.3780  37.6945 0011041  34.4543 354.2887 14.55085790880715"}}, "geometry": {"type": "Point", "coordinates": [-142.07179113400178, -11.75476666433757]}}, {"type": "Feature", "properties": {"norad_id": 34693, "name": "IRIDIUM 33 DEB", "group": "iridium-33-debris", "lat": 49.07239104025486, "lon": 119.75866749085564, "alt_km": 475.97487554959116, "timestamp": "2025-12-12T07:43:20.900454+00:00", "meta": {"OBJECT_NAME": "IRIDIUM 33 DEB", "OBJECT_ID": "1997-051KQ", "EPOCH": "2025-12-11T09:42:36.581184", "MEAN_MOTION": 15.27439249, "ECCENTRICITY": 0.0014165, "INCLINATION": 86.3047, "RA_OF_ASC_NODE": 304.4888, "ARG_OF_PERICENTER": 55.718, "MEAN_ANOMALY": 74.2343, "EPHEMERIS_TYPE": 0, "CLASSIFICATION_TYPE": "U", "NORAD_CAT_ID": 34693, "ELEMENT_SET_NO": 999, "REV_AT_EPOCH": 88894, "BSTAR": 0.0085161801, "MEAN_MOTION_DOT": 0.00236096, "MEAN_MOTION_DDOT": 0}, "tle": {"line1": "1 34693U 97051KQ  25345.40459006  .00236096  00000+0  85162-2 0  9993", "line2": "2 34693  86.3047 304.4888 0014165  55.7180  74.2343 15.27439249888949"}}, "geometry": {"type": "Point", "coordinates": [119.75866749085564, 49.07239104025486]}}, {"type": "Feature", "properties": {"norad_id": 34696, "name": "IRIDIUM 33 DEB", "group": "iridium-33-debris", "lat": -44.530310734292705, "lon": 23.953013605953352, "alt_km": 727.205722082118, "timestamp": "2025-12-12T07:43:20.900465+00:00", "meta": {"OBJECT_NAME": "IRIDIUM 33 DEB", "OBJECT_ID": "1997-051KT", "EPOCH": "2025-12-11T02:33:26.982720", "MEAN_MOTION": 14.64953116, "ECCENTRICITY": 0.00741481, "INCLINATION": 86.185, "RA_OF_ASC_NODE": 28.2818, "ARG_OF_PERICENTER": 173.0229, "MEAN_ANOMALY": 217.0787, "EPHEMERIS_TYPE": 0, "CLASSIFICATION_TYPE": "U", "NORAD_CAT_ID": 34696, "ELEMENT_SET_NO": 999, "REV_AT_EPOCH": 86649, "BSTAR": 0.0075396538, "MEAN_MOTION_DOT": 0.00042238, "MEAN_MOTION_DDOT": 0}, "tle": {"line1": "1 34696U 97051KT  25345.10656230  .00042238  00000+0  75397-2 0  9993", "line2": "2 34696  86.1850  28.2818 0074148 173.0229 217.0787 14.64953116866490"}}, "geometry": {"type": "Point", "coordinates": [23.953013605953352, -44.530310734292705]}}, {"type": "Feature", "properties": {"norad_id": 34765, "name": "IRIDIUM 33 DEB", "group": "iridium-33-debris", "lat": -62.23811570362463, "lon": -140.07381221662314, "alt_km": 754.7053877123553, "timestamp": "2025-12-12T07:43:20.900476+00:00", "meta": {"OBJECT_NAME": "IRIDIUM 33 DEB", "OBJECT_ID": "1997-051LJ", "EPOCH": "2025-12-11T14:38:05.129376", "MEAN_MOTION": 14.40460694, "ECCENTRICITY": 0.00153204, "INCLINATION": 86.3396, "RA_OF_ASC_NODE": 33.2465, "ARG_OF_PERICENTER": 215.3687, "MEAN_ANOMALY": 297.1612, "EPHEMERIS_TYPE": 0, "CLASSIFICATION_TYPE": "U", "NORAD_CAT_ID": 34765, "ELEMENT_SET_NO": 999, "REV_AT_EPOCH": 87597, "BSTAR": 0.00062745119, "MEAN_MOTION_DOT": 2.016e-05, "MEAN_MOTION_DDOT": 0}, "tle": {"line1": "1 34765U 97051LJ  25345.60978159  .00002016  00000+0  62745-3 0  9996", "line2": "2 34765  86.3396  33.2465 0015320 215.3687 297.1612 14.40460694875970"}}, "geometry": {"type": "Point", "coordinates": [-140.07381221662314, -62.23811570362463]}}]}